NORAD_CAT_ID,OBJECT_NAME,OBJECT_TYPE,EPOCH,MEAN_MOTION,ECCENTRICITY,INCLINATION,RA_OF_ASC_NODE,ARG_OF_PERICENTER,MEAN_ANOMALY,BSTAR,MEAN_MOTION_DOT,MEAN_MOTION_DDOT,TLE_LINE0,TLE_LINE1,TLE_LINE2,SEMIMAJOR_AXIS,PERIOD,APOGEE,PERIGEE,DECAYED
50179.0,STARLINK-3283,PAYLOAD,2024-06-04 10:25:27,15.08848821,7.19e-05,53.217,256.8059,93.9778,266.1297,0.00021359,3.114e-05,0.0,0 STARLINK-3283,1 50179U 21125Z   24156.43434829  .00003114  00000-0  21359-3 0  9990,2 50179  53.2170 256.8059 0000719  93.9778 266.1297 15.08848821139008,6917.853,95.437,540.216,539.221,0.0
50179.0,STARLINK-3283,PAYLOAD,2024-06-04 13:36:13,15.08856738,5.67e-05,53.2153,256.2133,74.1296,285.9759,0.00035019,5.293e-05,0.0,0 STARLINK-3283,1 50179U 21125Z   24156.56682696  .00005293  00000-0  35019-3 0  9999,2 50179  53.2153 256.2133 0000567  74.1296 285.9759 15.08856738139517,6917.829,95.436,540.086,539.302,0.0
50179.0,STARLINK-3283,PAYLOAD,2024-06-04 16:46:59,15.08861871,7.18e-05,53.2175,255.6176,83.0323,277.0751,0.00039148,5.952e-05,0.0,0 STARLINK-3283,1 50179U 21125Z   24156.69929975  .00005952  00000-0  39148-3 0  9996,2 50179  53.2175 255.6176 0000718  83.0323 277.0751 15.08861871139045,6917.814,95.436,540.175,539.182,0.0
50179.0,STARLINK-3283,PAYLOAD,2024-06-04 23:08:32,15.08841186,0.0001421,53.2174,254.4275,87.8515,272.264,2.2698e-06,-2.52e-06,0.0,0 STARLINK-3283,1 50179U 21125Z   24156.96426982 -.00000252  00000-0  22698-5 0  9999,2 50179  53.2174 254.4275 0001421  87.8515 272.2640 15.08841186139083,6917.877,95.437,540.725,538.759,0.0
50179.0,STARLINK-3283,PAYLOAD,2024-06-05 13:27:00,15.08845342,8.51e-05,53.2171,251.7546,100.946,259.1628,7.0569e-05,8.36e-06,0.0,0 STARLINK-3283,1 50179U 21125Z   24157.56042625  .00000836  00000-0  70569-4 0  9990,2 50179  53.2171 251.7546 0000851 100.9460 259.1628 15.08845342139665,6917.864,95.437,540.318,539.14,0.0
50179.0,STARLINK-3283,PAYLOAD,2024-06-05 16:37:46,15.08846861,7.56e-05,53.2164,251.158,100.7797,259.328,9.3589e-05,1.202e-05,0.0,0 STARLINK-3283,1 50179U 21125Z   24157.69290453  .00001202  00000-0  93589-4 0  9993,2 50179  53.2164 251.1580 0000756 100.7797 259.3280 15.08846861139689,6917.859,95.437,540.247,539.201,0.0
50179.0,STARLINK-3283,PAYLOAD,2024-06-06 13:17:48,15.08837533,0.0001092,53.2165,247.2956,98.6407,261.4709,-0.00017613,-3.09e-05,0.0,0 STARLINK-3283,1 50179U 21125Z   24158.55403310 -.00003090  00000-0 -17613-3 0  9999,2 50179  53.2165 247.2956 0001092  98.6407 261.4709 15.08837533139327,6917.888,95.438,540.508,538.997,0.0
50179.0,STARLINK-3283,PAYLOAD,2024-06-07 14:43:58,15.08848989,7.7e-05,53.2149,242.5356,81.9263,278.1817,0.00051129,7.861e-05,0.0,0 STARLINK-3283,1 50179U 21125Z   24159.61387529  .00007861  00000-0  51129-3 0  9998,2 50179  53.2149 242.5356 0000770  81.9263 278.1817 15.08848989139971,6917.853,95.437,540.251,539.185,0.0
50179.0,STARLINK-3283,PAYLOAD,2024-06-07 22:40:54,15.08853323,8.73e-05,53.2155,241.0468,78.4184,281.6906,0.0005299,8.159e-05,0.0,0 STARLINK-3283,1 50179U 21125Z   24159.94507334  .00008159  00000-0  52990-3 0  9990,2 50179  53.2155 241.0468 0000873  78.4184 281.6906 15.08853323140027,6917.84,95.437,540.309,539.101,0.0
50179.0,STARLINK-3283,PAYLOAD,2024-06-08 11:23:58,15.08859163,8.57e-05,53.2143,238.67,82.7004,277.4085,0.00048197,7.395e-05,0.0,0 STARLINK-3283,1 50179U 21125Z   24160.47498820  .00007395  00000-0  48197-3 0  9994,2 50179  53.2143 238.6700 0000857  82.7004 277.4085 15.08859163140104,6917.822,95.436,540.28,539.094,0.0
50179.0,STARLINK-3283,PAYLOAD,2024-06-08 22:31:40,15.08853071,0.0001072,53.2142,236.5883,87.7321,272.3794,0.00021185,3.087e-05,0.0,0 STARLINK-3283,1 50179U 21125Z   24160.93866828  .00003087  00000-0  21185-3 0  9994,2 50179  53.2142 236.5883 0001072  87.7321 272.3794 15.08853071140179,6917.84,95.437,540.447,538.964,0.0
50179.0,STARLINK-3283,PAYLOAD,2024-06-09 11:14:46,15.08826793,9.79e-05,53.2151,234.208,98.9521,261.1582,-0.00023099,-3.961e-05,0.0,0 STARLINK-3283,1 50179U 21125Z   24161.46859647 -.00003961  00000-0 -23099-3 0  9993,2 50179  53.2151 234.2080 0000979  98.9521 261.1582 15.08826793139769,6917.921,95.438,540.463,539.108,0.0
50179.0,STARLINK-3283,PAYLOAD,2024-06-09 14:25:33,15.08823063,0.0001109,53.2157,233.6136,101.3628,258.7489,-4.2252e-05,-9.6e-06,0.0,0 STARLINK-3283,1 50179U 21125Z   24161.60107858 -.00000960  00000-0 -42252-4 0  9998,2 50179  53.2157 233.6136 0001109 101.3628 258.7489 15.08823063140276,6917.932,95.439,540.564,539.03,0.0
50179.0,STARLINK-3283,PAYLOAD,2024-06-09 22:22:29,15.08834461,0.0001193,53.2179,232.1251,107.0829,253.0294,0.00035182,5.315e-05,0.0,0 STARLINK-3283,1 50179U 21125Z   24161.93228042  .00005315  00000-0  35182-3 0  9993,2 50179  53.2179 232.1251 0001193 107.0829 253.0294 15.08834461140323,6917.897,95.438,540.588,538.937,0.0
50179.0,STARLINK-3283,PAYLOAD,2024-06-10 11:05:34,15.08856603,9.47e-05,53.2151,229.748,99.929,260.1809,0.0012826,0.00020193,0.0,0 STARLINK-3283,1 50179U 21125Z   24162.46219934  .00020193  00000-0  12826-2 0  9992,2 50179  53.2151 229.7480 0000947  99.9290 260.1809 15.08856603139912,6917.83,95.437,540.35,539.04,0.0
50179.0,STARLINK-3283,PAYLOAD,2024-06-11 04:34:48,15.0884262,9.93e-05,53.2149,226.4757,103.7732,256.337,0.00046885,7.182e-05,0.0,0 STARLINK-3283,1 50179U 21125Z   24163.19084013  .00007182  00000-0  46885-3 0  9997,2 50179  53.2149 226.4757 0000993 103.7732 256.3370 15.08842620140024,6917.872,95.437,540.424,539.05,0.0
50179.0,STARLINK-3283,PAYLOAD,2024-06-11 10:56:21,15.08847489,7.98e-05,53.215,225.2868,78.6376,281.4706,0.00038592,5.861e-05,0.0,0 STARLINK-3283,1 50179U 21125Z   24163.45580030  .00005861  00000-0  38592-3 0  9994,2 50179  53.2150 225.2868 0000798  78.6376 281.4706 15.08847489140551,6917.857,95.437,540.275,539.17,0.0
50179.0,STARLINK-3283,PAYLOAD,2024-06-12 02:50:12,15.08848548,9.07e-05,53.2162,222.3162,74.7161,285.3932,0.00032035,4.815e-05,0.0,0 STARLINK-3283,1 50179U 21125Z   24164.11819872  .00004815  00000-0  32035-3 0  9991,2 50179  53.2162 222.3162 0000907  74.7161 285.3932 15.08848548140652,6917.854,95.437,540.347,539.092,0.0
50179.0,STARLINK-3283,PAYLOAD,2024-06-12 10:47:08,15.08839231,9.15e-05,53.2164,220.8288,86.5693,273.5404,4.7483e-05,4.68e-06,0.0,0 STARLINK-3283,1 50179U 21125Z   24164.44940375  .00000468  00000-0  47483-4 0  9994,2 50179  53.2164 220.8288 0000915  86.5693 273.5404 15.08839231140210,6917.883,95.438,540.381,539.115,0.0
50179.0,STARLINK-3283,PAYLOAD,2024-06-13 10:37:55,15.08841429,9.3e-05,53.216,216.3677,76.3254,283.7842,0.00012853,1.758e-05,0.0,0 STARLINK-3283,1 50179U 21125Z   24165.44300334  .00001758  00000-0  12853-3 0  9995,2 50179  53.2160 216.3677 0000930  76.3254 283.7842 15.08841429140856,6917.876,95.437,540.384,539.098,0.0
50179.0,STARLINK-3283,PAYLOAD,2024-06-14 12:04:06,15.08840035,8.94e-05,53.2167,211.6105,83.1738,276.9356,0.0001054,1.39e-05,0.0,0 STARLINK-3283,1 50179U 21125Z   24166.50284739  .00001390  00000-0  10540-3 0  9996,2 50179  53.2167 211.6105 0000894  83.1738 276.9356 15.08840035141014,6917.88,95.438,540.364,539.127,0.0
50179.0,STARLINK-3283,PAYLOAD,2024-06-14 20:01:01,15.08841012,9.03e-05,53.2167,210.124,86.6427,273.4668,0.00010179,1.333e-05,0.0,0 STARLINK-3283,1 50179U 21125Z   24166.83404675  .00001333  00000-0  10179-3 0  9990,2 50179  53.2167 210.1240 0000903  86.6427 273.4668 15.08841012141061,6917.877,95.437,540.367,539.118,0.0
50179.0,STARLINK-3283,PAYLOAD,2024-06-15 11:54:52,15.08849805,9.08e-05,53.2164,207.1497,85.2592,274.8504,0.0001255,1.711e-05,0.0,0 STARLINK-3283,1 50179U 21125Z   24167.49643938  .00001711  00000-0  12550-3 0  9995,2 50179  53.2164 207.1497 0000908  85.2592 274.8504 15.08849805140679,6917.85,95.437,540.344,539.087,0.0
50179.0,STARLINK-3283,PAYLOAD,2024-06-15 19:51:48,15.08844774,9.13e-05,53.2164,205.6623,81.4709,278.6387,0.00010174,1.332e-05,0.0,0 STARLINK-3283,1 50179U 21125Z   24167.82764211  .00001332  00000-0  10174-3 0  9999,2 50179  53.2164 205.6623 0000913  81.4709 278.6387 15.08844774141219,6917.866,95.437,540.362,539.099,0.0
50179.0,STARLINK-3283,PAYLOAD,2024-06-16 10:10:16,15.08846665,9.26e-05,53.2162,202.9847,85.728,274.3818,0.00010618,1.403e-05,0.0,0 STARLINK-3283,1 50179U 21125Z   24168.42380006  .00001403  00000-0  10618-3 0  9994,2 50179  53.2162 202.9847 0000926  85.7280 274.3818 15.08846665141303,6917.86,95.437,540.366,539.084,0.0
50179.0,STARLINK-3283,PAYLOAD,2024-06-17 19:33:22,15.08844999,9.04e-05,53.2162,196.7403,86.707,273.4025,-3.2609e-05,-8.07e-06,0.0,0 STARLINK-3283,1 50179U 21125Z   24169.81484195 -.00000807  00000-0 -32609-4 0  9996,2 50179  53.2162 196.7403 0000904  86.7070 273.4025 15.08844999141022,6917.865,95.437,540.355,539.105,0.0
50179.0,STARLINK-3283,PAYLOAD,2024-06-18 11:27:13,15.08842057,9.73e-05,53.2164,193.7662,90.4636,269.6468,5.4652e-05,5.82e-06,0.0,0 STARLINK-3283,1 50179U 21125Z   24170.47724103  .00000582  00000-0  54652-4 0  9996,2 50179  53.2164 193.7662 0000973  90.4636 269.6468 15.08842057141610,6917.874,95.437,540.412,539.066,0.0
50179.0,STARLINK-3283,PAYLOAD,2024-06-19 01:45:42,15.08837157,9.16e-05,53.2157,191.09,88.3239,271.7859,6.113e-05,6.85e-06,0.0,0 STARLINK-3283,1 50179U 21125Z   24171.07340434  .00000685  00000-0  61130-4 0  9997,2 50179  53.2157 191.0900 0000916  88.3239 271.7859 15.08837157141219,6917.889,95.438,540.388,539.12,0.0
50179.0,STARLINK-3283,PAYLOAD,2024-06-19 11:18:00,15.08838518,9.16e-05,53.2156,189.3063,84.6619,275.4478,6.1768e-05,6.95e-06,0.0,0 STARLINK-3283,1 50179U 21125Z   24171.47084382  .00000695  00000-0  61768-4 0  9996,2 50179  53.2156 189.3063 0000916  84.6619 275.4478 15.08838518141769,6917.885,95.438,540.384,539.116,0.0
50179.0,STARLINK-3283,PAYLOAD,2024-06-19 17:39:33,15.08835147,9.09e-05,53.2154,188.1166,83.5355,276.5741,2.9808e-05,1.87e-06,0.0,0 STARLINK-3283,1 50179U 21125Z   24171.73580726  .00000187  00000-0  29808-4 0  9993,2 50179  53.2154 188.1166 0000909  83.5355 276.5741 15.08835147141800,6917.895,95.438,540.389,539.131,0.0
